SAOCOM 1A               
1 43641U 18076A   26099.68028652  .00000519  00000+0  71691-4 0  9995
2 43641  97.8907 287.4152 0001422  78.7271 281.4102 14.82198033405950
H-2A R/B                
1 43682U 18084L   26099.88008934  .00017277  00000+0  39375-3 0  9993
2 43682  98.8682 323.9618 0023128 274.7157  85.1445 15.42748243410582
SAOCOM 1B               
1 46265U 20059A   26099.84661297  .00000082  00000+0  16820-4 0  9998
2 46265  97.8895 286.6751 0001443  82.2932 277.8444 14.82155553303364
CSS (TIANHE)            
1 48274U 21035A   26099.79993243  .00026712  00000+0  29783-3 0  9997
2 48274  41.4683  18.6460 0004513 172.0763 188.0148 15.62188173282472
COSMOS 2550             
1 48865U 21056A   26099.88216878 -.00000182  00000+0  28559-6 0  9995
2 48865  67.1408 306.5274 0008409 269.7637  90.2554 15.33825305268249
CZ-2C R/B               
1 52794U 22058K   26099.86299295  .00031376  00000+0  41961-3 0  9993
2 52794  50.1866 157.6437 0040758 334.4916  25.4043 15.56710258214984
CZ-2C R/B               
1 54039U 22132E   26099.54404781  .00043308  00000+0  43983-3 0  9997
2 54039  97.2954 103.8676 0014645 344.3694  15.7111 15.64950386195191
GSLV R/B                
1 54149U 22138AN  26099.53912194  .00002052  00000+0  17509-3 0  9992
2 54149  87.3841 156.0313 0023099  45.0771 315.2330 14.96972821188544
XRISM                   
1 57800U 23137A   26099.41019608  .00004909  00000+0  27425-3 0  9995
2 57800  31.0020  84.9032 0007651 347.1440  12.9003 15.11875023142449
ACS3                    
1 59588U 24077B   26099.80287108  .00021680  00000+0  16853-1 0  9995
2 59588  97.1912  33.9249 0073068   8.5394 351.6995 13.91125721 98523
HTV-X1                  
1 66174U 25241A   26099.82109446  .00004600  00000+0  15546-3 0  9991
2 66174  51.6367 282.9723 0007352 293.9243  66.0968 15.32598093 25711
SZ-21 MODULE            
1 66515U 25246C   26099.10187074  .00034657  00000+0  26861-3 0  9996
2 66515  41.4751  15.8070 0003954 247.3606 112.6819 15.71099635 22858
