[{"OBJECT_NAME":"SAOCOM 1A","OBJECT_ID":"2018-076A","EPOCH":"2026-04-09T16:19:36.755328","MEAN_MOTION":14.82198033,"ECCENTRICITY":0.0001422,"INCLINATION":97.8907,"RA_OF_ASC_NODE":287.4152,"ARG_OF_PERICENTER":78.7271,"MEAN_ANOMALY":281.4102,"EPHEMERIS_TYPE":0,"CLASSIFICATION_TYPE":"U","NORAD_CAT_ID":43641,"ELEMENT_SET_NO":999,"REV_AT_EPOCH":40595,"BSTAR":7.1691e-5,"MEAN_MOTION_DOT":5.19e-6,"MEAN_MOTION_DDOT":0},{"OBJECT_NAME":"H-2A R/B","OBJECT_ID":"2018-084L","EPOCH":"2026-04-09T21:07:19.718976","MEAN_MOTION":15.42748243,"ECCENTRICITY":0.0023128,"INCLINATION":98.8682,"RA_OF_ASC_NODE":323.9618,"ARG_OF_PERICENTER":274.7157,"MEAN_ANOMALY":85.1445,"EPHEMERIS_TYPE":0,"CLASSIFICATION_TYPE":"U","NORAD_CAT_ID":43682,"ELEMENT_SET_NO":999,"REV_AT_EPOCH":41058,"BSTAR":0.00039375,"MEAN_MOTION_DOT":0.00017277,"MEAN_MOTION_DDOT":0},{"OBJECT_NAME":"SAOCOM 1B","OBJECT_ID":"2020-059A","EPOCH":"2026-04-09T20:19:07.360608","MEAN_MOTION":14.82155553,"ECCENTRICITY":0.0001443,"INCLINATION":97.8895,"RA_OF_ASC_NODE":286.6751,"ARG_OF_PERICENTER":82.2932,"MEAN_ANOMALY":277.8444,"EPHEMERIS_TYPE":0,"CLASSIFICATION_TYPE":"U","NORAD_CAT_ID":46265,"ELEMENT_SET_NO":999,"REV_AT_EPOCH":30336,"BSTAR":1.682e-5,"MEAN_MOTION_DOT":8.2e-7,"MEAN_MOTION_DDOT":0},{"OBJECT_NAME":"CSS (TIANHE)","OBJECT_ID":"2021-035A","EPOCH":"2026-04-09T19:11:54.161952","MEAN_MOTION":15.62188173,"ECCENTRICITY":0.0004513,"INCLINATION":41.4683,"RA_OF_ASC_NODE":18.646,"ARG_OF_PERICENTER":172.0763,"MEAN_ANOMALY":188.0148,"EPHEMERIS_TYPE":0,"CLASSIFICATION_TYPE":"U","NORAD_CAT_ID":48274,"ELEMENT_SET_NO":999,"REV_AT_EPOCH":28247,"BSTAR":0.00029783,"MEAN_MOTION_DOT":0.00026712,"MEAN_MOTION_DDOT":0},{"OBJECT_NAME":"COSMOS 2550","OBJECT_ID":"2021-056A","EPOCH":"2026-04-09T21:10:19.382592","MEAN_MOTION":15.33825305,"ECCENTRICITY":0.0008409,"INCLINATION":67.1408,"RA_OF_ASC_NODE":306.5274,"ARG_OF_PERICENTER":269.7637,"MEAN_ANOMALY":90.2554,"EPHEMERIS_TYPE":0,"CLASSIFICATION_TYPE":"U","NORAD_CAT_ID":48865,"ELEMENT_SET_NO":999,"REV_AT_EPOCH":26824,"BSTAR":2.8559e-7,"MEAN_MOTION_DOT":-1.82e-6,"MEAN_MOTION_DDOT":0},{"OBJECT_NAME":"CZ-2C R/B","OBJECT_ID":"2022-058K","EPOCH":"2026-04-09T20:42:42.590880","MEAN_MOTION":15.56710258,"ECCENTRICITY":0.0040758,"INCLINATION":50.1866,"RA_OF_ASC_NODE":157.6437,"ARG_OF_PERICENTER":334.4916,"MEAN_ANOMALY":25.4043,"EPHEMERIS_TYPE":0,"CLASSIFICATION_TYPE":"U","NORAD_CAT_ID":52794,"ELEMENT_SET_NO":999,"REV_AT_EPOCH":21498,"BSTAR":0.00041961,"MEAN_MOTION_DOT":0.00031376,"MEAN_MOTION_DDOT":0},{"OBJECT_NAME":"CZ-2C R/B","OBJECT_ID":"2022-132E","EPOCH":"2026-04-09T13:03:25.730784","MEAN_MOTION":15.64950386,"ECCENTRICITY":0.0014645,"INCLINATION":97.2954,"RA_OF_ASC_NODE":103.8676,"ARG_OF_PERICENTER":344.3694,"MEAN_ANOMALY":15.7111,"EPHEMERIS_TYPE":0,"CLASSIFICATION_TYPE":"U","NORAD_CAT_ID":54039,"ELEMENT_SET_NO":999,"REV_AT_EPOCH":19519,"BSTAR":0.00043983,"MEAN_MOTION_DOT":0.00043308,"MEAN_MOTION_DDOT":0},{"OBJECT_NAME":"GSLV R/B","OBJECT_ID":"2022-138AN","EPOCH":"2026-04-09T12:56:20.135616","MEAN_MOTION":14.96972821,"ECCENTRICITY":0.0023099,"INCLINATION":87.3841,"RA_OF_ASC_NODE":156.0313,"ARG_OF_PERICENTER":45.0771,"MEAN_ANOMALY":315.233,"EPHEMERIS_TYPE":0,"CLASSIFICATION_TYPE":"U","NORAD_CAT_ID":54149,"ELEMENT_SET_NO":999,"REV_AT_EPOCH":18854,"BSTAR":0.00017509,"MEAN_MOTION_DOT":2.052e-5,"MEAN_MOTION_DDOT":0},{"OBJECT_NAME":"XRISM","OBJECT_ID":"2023-137A","EPOCH":"2026-04-09T09:50:40.941312","MEAN_MOTION":15.11875023,"ECCENTRICITY":0.00076515,"INCLINATION":31.002,"RA_OF_ASC_NODE":84.9032,"ARG_OF_PERICENTER":347.144,"MEAN_ANOMALY":12.9003,"EPHEMERIS_TYPE":0,"CLASSIFICATION_TYPE":"U","NORAD_CAT_ID":57800,"ELEMENT_SET_NO":999,"REV_AT_EPOCH":14244,"BSTAR":0.00027424592,"MEAN_MOTION_DOT":4.909e-5,"MEAN_MOTION_DDOT":0},{"OBJECT_NAME":"ACS3","OBJECT_ID":"2024-077B","EPOCH":"2026-04-09T19:16:08.061312","MEAN_MOTION":13.91125721,"ECCENTRICITY":0.0073068,"INCLINATION":97.1912,"RA_OF_ASC_NODE":33.9249,"ARG_OF_PERICENTER":8.5394,"MEAN_ANOMALY":351.6995,"EPHEMERIS_TYPE":0,"CLASSIFICATION_TYPE":"U","NORAD_CAT_ID":59588,"ELEMENT_SET_NO":999,"REV_AT_EPOCH":9852,"BSTAR":0.016853,"MEAN_MOTION_DOT":0.0002168,"MEAN_MOTION_DDOT":0},{"OBJECT_NAME":"HTV-X1","OBJECT_ID":"2025-241A","EPOCH":"2026-04-09T19:42:22.561344","MEAN_MOTION":15.32598093,"ECCENTRICITY":0.0007352,"INCLINATION":51.6367,"RA_OF_ASC_NODE":282.9723,"ARG_OF_PERICENTER":293.9243,"MEAN_ANOMALY":66.0968,"EPHEMERIS_TYPE":0,"CLASSIFICATION_TYPE":"U","NORAD_CAT_ID":66174,"ELEMENT_SET_NO":999,"REV_AT_EPOCH":2571,"BSTAR":0.00015546,"MEAN_MOTION_DOT":4.6e-5,"MEAN_MOTION_DDOT":0},{"OBJECT_NAME":"SZ-21 MODULE","OBJECT_ID":"2025-246C","EPOCH":"2026-04-09T02:26:41.631936","MEAN_MOTION":15.71099635,"ECCENTRICITY":0.00039544,"INCLINATION":41.4751,"RA_OF_ASC_NODE":15.807,"ARG_OF_PERICENTER":247.3606,"MEAN_ANOMALY":112.6819,"EPHEMERIS_TYPE":0,"CLASSIFICATION_TYPE":"U","NORAD_CAT_ID":66515,"ELEMENT_SET_NO":999,"REV_AT_EPOCH":2285,"BSTAR":0.00026861322,"MEAN_MOTION_DOT":0.00034657,"MEAN_MOTION_DDOT":0}]
